[{"OBJECT_NAME":"TIANMU-1 07","OBJECT_ID":"2023-101A","EPOCH":"2026-03-06T13:47:20.454720","MEAN_MOTION":15.29118809,"ECCENTRICITY":0.00046097,"INCLINATION":97.2728,"RA_OF_ASC_NODE":118.5929,"ARG_OF_PERICENTER":142.4105,"MEAN_ANOMALY":217.7458,"EPHEMERIS_TYPE":0,"CLASSIFICATION_TYPE":"U","NORAD_CAT_ID":57399,"ELEMENT_SET_NO":999,"REV_AT_EPOCH":14596,"BSTAR":0.00029794732,"MEAN_MOTION_DOT":8.352e-5,"MEAN_MOTION_DDOT":0},{"OBJECT_NAME":"STARLINK-35661","OBJECT_ID":"2025-257H","EPOCH":"2026-03-09T17:33:34.030368","MEAN_MOTION":15.30203999,"ECCENTRICITY":9.818e-5,"INCLINATION":53.1605,"RA_OF_ASC_NODE":216.5656,"ARG_OF_PERICENTER":88.2084,"MEAN_ANOMALY":271.9029,"EPHEMERIS_TYPE":0,"CLASSIFICATION_TYPE":"U","NORAD_CAT_ID":66387,"ELEMENT_SET_NO":999,"REV_AT_EPOCH":1974,"BSTAR":0.00099652627,"MEAN_MOTION_DOT":0.00029275,"MEAN_MOTION_DDOT":0}]
